[{"OBJECT_NAME":"STARLINK-32149","OBJECT_ID":"2024-132Q","EPOCH":"2026-03-09T22:07:38.055072","MEAN_MOTION":15.30186437,"ECCENTRICITY":0.0001275,"INCLINATION":53.1616,"RA_OF_ASC_NODE":51.5165,"ARG_OF_PERICENTER":103.1542,"MEAN_ANOMALY":256.9601,"EPHEMERIS_TYPE":0,"CLASSIFICATION_TYPE":"U","NORAD_CAT_ID":60292,"ELEMENT_SET_NO":999,"REV_AT_EPOCH":9159,"BSTAR":2.2871411e-5,"MEAN_MOTION_DOT":3.18e-6,"MEAN_MOTION_DDOT":0},{"OBJECT_NAME":"NUSAT-49 (KLARA DAN VON NEUMANN)","OBJECT_ID":"2024-149AJ","EPOCH":"2026-03-09T19:09:16.004160","MEAN_MOTION":15.30828857,"ECCENTRICITY":0.00011321,"INCLINATION":97.3807,"RA_OF_ASC_NODE":150.738,"ARG_OF_PERICENTER":286.7761,"MEAN_ANOMALY":73.3356,"EPHEMERIS_TYPE":0,"CLASSIFICATION_TYPE":"U","NORAD_CAT_ID":60500,"ELEMENT_SET_NO":999,"REV_AT_EPOCH":8693,"BSTAR":0.00043568345,"MEAN_MOTION_DOT":0.00012912,"MEAN_MOTION_DDOT":0}]
